[{"OBJECT_NAME":"STARLINK-34292","OBJECT_ID":"2025-127W","EPOCH":"2026-03-08T15:13:50.616768","MEAN_MOTION":15.27591666,"ECCENTRICITY":0.00021431,"INCLINATION":43.0007,"RA_OF_ASC_NODE":185.9187,"ARG_OF_PERICENTER":286.8262,"MEAN_ANOMALY":73.2355,"EPHEMERIS_TYPE":0,"CLASSIFICATION_TYPE":"U","NORAD_CAT_ID":64390,"ELEMENT_SET_NO":999,"REV_AT_EPOCH":4230,"BSTAR":0.0014806983,"MEAN_MOTION_DOT":0.00040724,"MEAN_MOTION_DDOT":0},{"OBJECT_NAME":"OBJECT H","OBJECT_ID":"2025-155H","EPOCH":"2026-03-09T22:09:58.611456","MEAN_MOTION":15.27590961,"ECCENTRICITY":0.00081993,"INCLINATION":97.4482,"RA_OF_ASC_NODE":37.3122,"ARG_OF_PERICENTER":152.0629,"MEAN_ANOMALY":208.1051,"EPHEMERIS_TYPE":0,"CLASSIFICATION_TYPE":"U","NORAD_CAT_ID":64883,"ELEMENT_SET_NO":999,"REV_AT_EPOCH":6559,"BSTAR":0.00050403256,"MEAN_MOTION_DOT":0.00013547,"MEAN_MOTION_DDOT":0}]
